<?xml version="1.0" encoding="UTF-8"?>
<ndm xmlns:xsi="http://www.w3.org/2001/XMLSchema-instance" xsi:noNamespaceSchemaLocation="https://sanaregistry.org/r/ndmxml_unqualified/ndmxml-2.0.0-master-2.0.xsd">
<omm id="CCSDS_OMM_VERS" version="2.0">
<header><CREATION_DATE/><ORIGINATOR/></header><body><segment><metadata><OBJECT_NAME>KUIPER-00096</OBJECT_NAME><OBJECT_ID>2025-171D</OBJECT_ID><CENTER_NAME>EARTH</CENTER_NAME><REF_FRAME>TEME</REF_FRAME><TIME_SYSTEM>UTC</TIME_SYSTEM><MEAN_ELEMENT_THEORY>SGP4</MEAN_ELEMENT_THEORY></metadata><data><meanElements><EPOCH>2026-01-25T02:53:37.362048</EPOCH><MEAN_MOTION>14.79902433</MEAN_MOTION><ECCENTRICITY>.00020777</ECCENTRICITY><INCLINATION>51.9004</INCLINATION><RA_OF_ASC_NODE>350.7471</RA_OF_ASC_NODE><ARG_OF_PERICENTER>73.5582</ARG_OF_PERICENTER><MEAN_ANOMALY>286.5609</MEAN_ANOMALY></meanElements><tleParameters><EPHEMERIS_TYPE>0</EPHEMERIS_TYPE><CLASSIFICATION_TYPE>U</CLASSIFICATION_TYPE><NORAD_CAT_ID>65135</NORAD_CAT_ID><ELEMENT_SET_NO>999</ELEMENT_SET_NO><REV_AT_EPOCH>2644</REV_AT_EPOCH><BSTAR>.10000506E-2</BSTAR><MEAN_MOTION_DOT>.7405E-4</MEAN_MOTION_DOT><MEAN_MOTION_DDOT>0</MEAN_MOTION_DDOT></tleParameters></data></segment></body></omm>
<omm id="CCSDS_OMM_VERS" version="2.0">
<header><CREATION_DATE/><ORIGINATOR/></header><body><segment><metadata><OBJECT_NAME>KUIPER-00097</OBJECT_NAME><OBJECT_ID>2025-171E</OBJECT_ID><CENTER_NAME>EARTH</CENTER_NAME><REF_FRAME>TEME</REF_FRAME><TIME_SYSTEM>UTC</TIME_SYSTEM><MEAN_ELEMENT_THEORY>SGP4</MEAN_ELEMENT_THEORY></metadata><data><meanElements><EPOCH>2026-01-25T04:26:39.066432</EPOCH><MEAN_MOTION>14.80067678</MEAN_MOTION><ECCENTRICITY>.00029001</ECCENTRICITY><INCLINATION>51.9030</INCLINATION><RA_OF_ASC_NODE>353.0787</RA_OF_ASC_NODE><ARG_OF_PERICENTER>45.9619</ARG_OF_PERICENTER><MEAN_ANOMALY>314.1582</MEAN_ANOMALY></meanElements><tleParameters><EPHEMERIS_TYPE>0</EPHEMERIS_TYPE><CLASSIFICATION_TYPE>U</CLASSIFICATION_TYPE><NORAD_CAT_ID>65136</NORAD_CAT_ID><ELEMENT_SET_NO>999</ELEMENT_SET_NO><REV_AT_EPOCH>2640</REV_AT_EPOCH><BSTAR>.13654001E-2</BSTAR><MEAN_MOTION_DOT>.10237E-3</MEAN_MOTION_DOT><MEAN_MOTION_DDOT>0</MEAN_MOTION_DDOT></tleParameters></data></segment></body></omm>
<omm id="CCSDS_OMM_VERS" version="2.0">
<header><CREATION_DATE/><ORIGINATOR/></header><body><segment><metadata><OBJECT_NAME>KUIPER-00098</OBJECT_NAME><OBJECT_ID>2025-171F</OBJECT_ID><CENTER_NAME>EARTH</CENTER_NAME><REF_FRAME>TEME</REF_FRAME><TIME_SYSTEM>UTC</TIME_SYSTEM><MEAN_ELEMENT_THEORY>SGP4</MEAN_ELEMENT_THEORY></metadata><data><meanElements><EPOCH>2026-01-25T02:45:07.126848</EPOCH><MEAN_MOTION>14.80083133</MEAN_MOTION><ECCENTRICITY>.00070544</ECCENTRICITY><INCLINATION>51.9022</INCLINATION><RA_OF_ASC_NODE>355.7699</RA_OF_ASC_NODE><ARG_OF_PERICENTER>2.0884</ARG_OF_PERICENTER><MEAN_ANOMALY>358.0107</MEAN_ANOMALY></meanElements><tleParameters><EPHEMERIS_TYPE>0</EPHEMERIS_TYPE><CLASSIFICATION_TYPE>U</CLASSIFICATION_TYPE><NORAD_CAT_ID>65137</NORAD_CAT_ID><ELEMENT_SET_NO>999</ELEMENT_SET_NO><REV_AT_EPOCH>2571</REV_AT_EPOCH><BSTAR>.1243294E-2</BSTAR><MEAN_MOTION_DOT>.9306E-4</MEAN_MOTION_DOT><MEAN_MOTION_DDOT>0</MEAN_MOTION_DDOT></tleParameters></data></segment></body></omm>
<omm id="CCSDS_OMM_VERS" version="2.0">
<header><CREATION_DATE/><ORIGINATOR/></header><body><segment><metadata><OBJECT_NAME>KUIPER-00099</OBJECT_NAME><OBJECT_ID>2025-171G</OBJECT_ID><CENTER_NAME>EARTH</CENTER_NAME><REF_FRAME>TEME</REF_FRAME><TIME_SYSTEM>UTC</TIME_SYSTEM><MEAN_ELEMENT_THEORY>SGP4</MEAN_ELEMENT_THEORY></metadata><data><meanElements><EPOCH>2026-01-25T03:50:03.720192</EPOCH><MEAN_MOTION>14.79919419</MEAN_MOTION><ECCENTRICITY>.0001353</ECCENTRICITY><INCLINATION>51.9045</INCLINATION><RA_OF_ASC_NODE>345.5513</RA_OF_ASC_NODE><ARG_OF_PERICENTER>86.7534</ARG_OF_PERICENTER><MEAN_ANOMALY>273.3583</MEAN_ANOMALY></meanElements><tleParameters><EPHEMERIS_TYPE>0</EPHEMERIS_TYPE><CLASSIFICATION_TYPE>U</CLASSIFICATION_TYPE><NORAD_CAT_ID>65138</NORAD_CAT_ID><ELEMENT_SET_NO>999</ELEMENT_SET_NO><REV_AT_EPOCH>2651</REV_AT_EPOCH><BSTAR>.11822062E-2</BSTAR><MEAN_MOTION_DOT>.88E-4</MEAN_MOTION_DOT><MEAN_MOTION_DDOT>0</MEAN_MOTION_DDOT></tleParameters></data></segment></body></omm>
<omm id="CCSDS_OMM_VERS" version="2.0">
<header><CREATION_DATE/><ORIGINATOR/></header><body><segment><metadata><OBJECT_NAME>KUIPER-00100</OBJECT_NAME><OBJECT_ID>2025-171H</OBJECT_ID><CENTER_NAME>EARTH</CENTER_NAME><REF_FRAME>TEME</REF_FRAME><TIME_SYSTEM>UTC</TIME_SYSTEM><MEAN_ELEMENT_THEORY>SGP4</MEAN_ELEMENT_THEORY></metadata><data><meanElements><EPOCH>2026-01-25T01:28:01.873920</EPOCH><MEAN_MOTION>14.79943569</MEAN_MOTION><ECCENTRICITY>.00007323</ECCENTRICITY><INCLINATION>51.9032</INCLINATION><RA_OF_ASC_NODE>343.4738</RA_OF_ASC_NODE><ARG_OF_PERICENTER>85.6028</ARG_OF_PERICENTER><MEAN_ANOMALY>274.5018</MEAN_ANOMALY></meanElements><tleParameters><EPHEMERIS_TYPE>0</EPHEMERIS_TYPE><CLASSIFICATION_TYPE>U</CLASSIFICATION_TYPE><NORAD_CAT_ID>65139</NORAD_CAT_ID><ELEMENT_SET_NO>999</ELEMENT_SET_NO><REV_AT_EPOCH>2653</REV_AT_EPOCH><BSTAR>.12006372E-2</BSTAR><MEAN_MOTION_DOT>.8946E-4</MEAN_MOTION_DOT><MEAN_MOTION_DDOT>0</MEAN_MOTION_DDOT></tleParameters></data></segment></body></omm>
<omm id="CCSDS_OMM_VERS" version="2.0">
<header><CREATION_DATE/><ORIGINATOR/></header><body><segment><metadata><OBJECT_NAME>KUIPER-00102</OBJECT_NAME><OBJECT_ID>2025-171J</OBJECT_ID><CENTER_NAME>EARTH</CENTER_NAME><REF_FRAME>TEME</REF_FRAME><TIME_SYSTEM>UTC</TIME_SYSTEM><MEAN_ELEMENT_THEORY>SGP4</MEAN_ELEMENT_THEORY></metadata><data><meanElements><EPOCH>2026-01-25T04:39:03.808512</EPOCH><MEAN_MOTION>14.79977837</MEAN_MOTION><ECCENTRICITY>.00008127</ECCENTRICITY><INCLINATION>51.9001</INCLINATION><RA_OF_ASC_NODE>345.4270</RA_OF_ASC_NODE><ARG_OF_PERICENTER>84.8634</ARG_OF_PERICENTER><MEAN_ANOMALY>275.2421</MEAN_ANOMALY></meanElements><tleParameters><EPHEMERIS_TYPE>0</EPHEMERIS_TYPE><CLASSIFICATION_TYPE>U</CLASSIFICATION_TYPE><NORAD_CAT_ID>65140</NORAD_CAT_ID><ELEMENT_SET_NO>999</ELEMENT_SET_NO><REV_AT_EPOCH>2651</REV_AT_EPOCH><BSTAR>.86651593E-3</BSTAR><MEAN_MOTION_DOT>.6398E-4</MEAN_MOTION_DOT><MEAN_MOTION_DDOT>0</MEAN_MOTION_DDOT></tleParameters></data></segment></body></omm>
<omm id="CCSDS_OMM_VERS" version="2.0">
<header><CREATION_DATE/><ORIGINATOR/></header><body><segment><metadata><OBJECT_NAME>KUIPER-00103</OBJECT_NAME><OBJECT_ID>2025-171K</OBJECT_ID><CENTER_NAME>EARTH</CENTER_NAME><REF_FRAME>TEME</REF_FRAME><TIME_SYSTEM>UTC</TIME_SYSTEM><MEAN_ELEMENT_THEORY>SGP4</MEAN_ELEMENT_THEORY></metadata><data><meanElements><EPOCH>2026-01-25T03:23:14.257536</EPOCH><MEAN_MOTION>14.79825967</MEAN_MOTION><ECCENTRICITY>.00025148</ECCENTRICITY><INCLINATION>51.9003</INCLINATION><RA_OF_ASC_NODE>3.1481</RA_OF_ASC_NODE><ARG_OF_PERICENTER>22.7385</ARG_OF_PERICENTER><MEAN_ANOMALY>337.3688</MEAN_ANOMALY></meanElements><tleParameters><EPHEMERIS_TYPE>0</EPHEMERIS_TYPE><CLASSIFICATION_TYPE>U</CLASSIFICATION_TYPE><NORAD_CAT_ID>65141</NORAD_CAT_ID><ELEMENT_SET_NO>999</ELEMENT_SET_NO><REV_AT_EPOCH>2626</REV_AT_EPOCH><BSTAR>.11917375E-2</BSTAR><MEAN_MOTION_DOT>.8853E-4</MEAN_MOTION_DOT><MEAN_MOTION_DDOT>0</MEAN_MOTION_DDOT></tleParameters></data></segment></body></omm>
<omm id="CCSDS_OMM_VERS" version="2.0">
<header><CREATION_DATE/><ORIGINATOR/></header><body><segment><metadata><OBJECT_NAME>KUIPER-00104</OBJECT_NAME><OBJECT_ID>2025-171L</OBJECT_ID><CENTER_NAME>EARTH</CENTER_NAME><REF_FRAME>TEME</REF_FRAME><TIME_SYSTEM>UTC</TIME_SYSTEM><MEAN_ELEMENT_THEORY>SGP4</MEAN_ELEMENT_THEORY></metadata><data><meanElements><EPOCH>2026-01-25T01:54:07.595712</EPOCH><MEAN_MOTION>14.76715300</MEAN_MOTION><ECCENTRICITY>.0005415</ECCENTRICITY><INCLINATION>51.9031</INCLINATION><RA_OF_ASC_NODE>350.7913</RA_OF_ASC_NODE><ARG_OF_PERICENTER>35.4580</ARG_OF_PERICENTER><MEAN_ANOMALY>324.6740</MEAN_ANOMALY></meanElements><tleParameters><EPHEMERIS_TYPE>0</EPHEMERIS_TYPE><CLASSIFICATION_TYPE>U</CLASSIFICATION_TYPE><NORAD_CAT_ID>65142</NORAD_CAT_ID><ELEMENT_SET_NO>999</ELEMENT_SET_NO><REV_AT_EPOCH>2643</REV_AT_EPOCH><BSTAR>-.27061337E-3</BSTAR><MEAN_MOTION_DOT>-.2128E-4</MEAN_MOTION_DOT><MEAN_MOTION_DDOT>0</MEAN_MOTION_DDOT></tleParameters></data></segment></body></omm>
<omm id="CCSDS_OMM_VERS" version="2.0">
<header><CREATION_DATE/><ORIGINATOR/></header><body><segment><metadata><OBJECT_NAME>KUIPER-00105</OBJECT_NAME><OBJECT_ID>2025-171M</OBJECT_ID><CENTER_NAME>EARTH</CENTER_NAME><REF_FRAME>TEME</REF_FRAME><TIME_SYSTEM>UTC</TIME_SYSTEM><MEAN_ELEMENT_THEORY>SGP4</MEAN_ELEMENT_THEORY></metadata><data><meanElements><EPOCH>2026-01-25T02:41:53.980512</EPOCH><MEAN_MOTION>14.79972839</MEAN_MOTION><ECCENTRICITY>.00022917</ECCENTRICITY><INCLINATION>51.9026</INCLINATION><RA_OF_ASC_NODE>358.3497</RA_OF_ASC_NODE><ARG_OF_PERICENTER>29.7642</ARG_OF_PERICENTER><MEAN_ANOMALY>330.3450</MEAN_ANOMALY></meanElements><tleParameters><EPHEMERIS_TYPE>0</EPHEMERIS_TYPE><CLASSIFICATION_TYPE>U</CLASSIFICATION_TYPE><NORAD_CAT_ID>65143</NORAD_CAT_ID><ELEMENT_SET_NO>999</ELEMENT_SET_NO><REV_AT_EPOCH>2633</REV_AT_EPOCH><BSTAR>.90625487E-3</BSTAR><MEAN_MOTION_DOT>.6701E-4</MEAN_MOTION_DOT><MEAN_MOTION_DDOT>0</MEAN_MOTION_DDOT></tleParameters></data></segment></body></omm>

</ndm>
